norad_id,name,regime,epoch,line1,line2,inclination,eccentricity,mean_motion,raan,arg_pericenter,mean_anomaly
26566,COSMOS 2374 (GLONASS),NSO,07252.71126374,1 26566U 00063C   07252.71126374 -.00000029 +00000-0 +10000-3 0 00415\,2 26566 064.5264 185.5462 0049580 217.1515 311.5922 02.13100480053733,64.5264,0.004958,2.1310048,185.5462,217.1515,311.5922
26566,COSMOS 2374 (GLONASS),NSO,07253.94399995,1 26566U 00063C   07253.94399995 -.00000017 +00000-0 +10000-3 0 00431\,2 26566 064.5264 185.5049 0049587 217.1438 177.3066 02.13100476053760,64.5264,0.0049587,2.13100476,185.5049,217.1438,177.3066
26566,COSMOS 2374 (GLONASS),NSO,07254.55683775,1 26566U 00063C   07254.55683775 -.00000009 +00000-0 +10000-3 0 00421\,2 26566 064.5263 185.4845 0049571 217.1278 287.4671 02.13100466053772,64.5263,0.0049571,2.13100466,185.4845,217.1278,287.4671
26566,COSMOS 2374 (GLONASS),NSO,07255.07645977,1 26566U 00063C   07255.07645977 -.00000003  00000-0  10000-3 0   414\,2 26566 064.5263 185.4672 0049573 217.1137 326.1143 02.13100456 53781,64.5263,0.0049573,2.13100456,185.4672,217.1137,326.1143
26566,COSMOS 2374 (GLONASS),NSO,07255.82365980,1 26566U 00063C   07255.82365980 +.00000006 +00000-0 +10000-3 0 00434\,2 26566 064.5262 185.4423 0049565 217.1115 179.3385 02.13100450053804,64.5262,0.0049565,2.1310045,185.4423,217.1115,179.3385
26566,COSMOS 2374 (GLONASS),NSO,07256.43995234,1 26566U 00063C   07256.43995234  .00000013  00000-0  10000-3 0   420\,2 26566 064.5262 185.4217 0049549 217.0914 292.1536 02.13100443 53818,64.5262,0.0049549,2.13100443,185.4217,217.0914,292.1536
26566,COSMOS 2374 (GLONASS),NSO,07256.75524807,1 26566U 00063C   07256.75524807 +.00000016 +00000-0 +10000-3 0 00433\,2 26566 064.5261 185.4114 0049548 217.0816 174.0458 02.13100443053825,64.5261,0.0049548,2.13100443,185.4114,217.0816,174.0458
26566,COSMOS 2374 (GLONASS),NSO,07257.81607690,1 26566U 00063C   07257.81607690  .00000022  00000-0  10000-3 0   430\,2 26566 064.5261 185.3760 0049525 217.0549 267.8982 02.13100437 53847,64.5261,0.0049525,2.13100437,185.376,217.0549,267.8982
26566,COSMOS 2374 (GLONASS),NSO,07258.79698851,1 26566U 00063C   07258.79698851 +.00000024 +00000-0 +10000-3 0 00462\,2 26566 064.5259 185.3434 0049517 217.0309 300.4387 02.13100435053860,64.5259,0.0049517,2.13100435,185.3434,217.0309,300.4387
26566,COSMOS 2374 (GLONASS),NSO,07259.24723992,1 26566U 00063C   07259.24723992  .00000023  00000-0  10000-3 0   445\,2 26566 064.5259 185.3283 0049520 217.0250 285.8600 02.13100437 53878,64.5259,0.004952,2.13100437,185.3283,217.025,285.86
26566,COSMOS 2374 (GLONASS),NSO,07260.68471159,1 26566U 00063C   07260.68471159  .00000018  00000-0  10000-3 0   455\,2 26566 064.5260 185.2803 0049542 217.0085 308.6486 02.13100441 53902,64.526,0.0049542,2.13100441,185.2803,217.0085,308.6486
26566,COSMOS 2374 (GLONASS),NSO,07261.92149513,1 26566U 00063C   07261.92149513  .00000011  00000-0  10000-3 0   463\,2 26566 064.5257 185.2391 0049549 216.9865 177.4824 02.13100442 53933,64.5257,0.0049549,2.13100442,185.2391,216.9865,177.4824
26566,COSMOS 2374 (GLONASS),NSO,07262.51828251,1 26566U 00063C   07262.51828251  .00000008  00000-0  10000-3 0   479\,2 26566 064.5261 185.2192 0049562 216.9830 275.3188 02.13100453 53948,64.5261,0.0049562,2.13100453,185.2192,216.983,275.3188
26566,COSMOS 2374 (GLONASS),NSO,07262.92634025,1 26566U 00063C   07262.92634025 +.00000006 +00000-0 +10000-3 0 00487\,2 26566 064.5257 185.2054 0049581 216.9841 228.3629 02.13100444053952,64.5257,0.0049581,2.13100444,185.2054,216.9841,228.3629
26566,COSMOS 2374 (GLONASS),NSO,07263.47635368,1 26566U 00063C   07263.47635368 +.00000004 +00000-0 +10000-3 0 00498\,2 26566 064.5256 185.1872 0049577 216.9764 290.3193 02.13100444053963,64.5256,0.0049577,2.13100444,185.1872,216.9764,290.3193
26566,COSMOS 2374 (GLONASS),NSO,07264.27016130,1 26566U 00063C   07264.27016130  .00000002  00000-0  10000-3 0   484\,2 26566 064.5254 185.1609 0049540 216.9531 179.3203 02.13100448 53985,64.5254,0.004954,2.13100448,185.1609,216.9531,179.3203
26566,COSMOS 2374 (GLONASS),NSO,07264.81712491,1 26566U 00063C   07264.81712491 +.00000001 +00000-0 +10000-3 0 00509\,2 26566 064.5254 185.1427 0049541 216.9430 238.9394 02.13100447053995,64.5254,0.0049541,2.13100447,185.1427,216.943,238.9394
26566,COSMOS 2374 (GLONASS),NSO,07265.31291450,1 26566U 00063C   07265.31291450  .00000001  00000-0  10000-3 0   490\,2 26566 064.5252 185.1262 0049539 216.9398 259.2928 02.13100450 54006,64.5252,0.0049539,2.1310045,185.1262,216.9398,259.2928
26566,COSMOS 2374 (GLONASS),NSO,07265.80769213,1 26566U 00063C   07265.80769213 +.00000002 +00000-0 +10000-3 0 00515\,2 26566 064.5252 185.1097 0049559 216.9158 278.8916 02.13100457054010,64.5252,0.0049559,2.13100457,185.1097,216.9158,278.8916
26566,COSMOS 2374 (GLONASS),NSO,07266.35091416,1 26566U 00063C   07266.35091416  .00000003  00000-0  10000-3 0   509\,2 26566 064.5252 185.0915 0049580 216.9167 335.6297 02.13100463 54024,64.5252,0.004958,2.13100463,185.0915,216.9167,335.6297
26566,COSMOS 2374 (GLONASS),NSO,07267.24715627,1 26566U 00063C   07267.24715627 +.00000008 +00000-0 +10000-3 0 00522\,2 26566 064.5251 185.0616 0049584 216.9025 303.2059 02.13100468054042,64.5251,0.0049584,2.13100468,185.0616,216.9025,303.2059
26566,COSMOS 2374 (GLONASS),NSO,07268.16728551,1 26566U 00063C   07268.16728551  .00000015  00000-0  10000-3 0   511\,2 26566 064.5251 185.0309 0049586 216.8908 289.1048 02.13100471 54068,64.5251,0.0049586,2.13100471,185.0309,216.8908,289.1048
26566,COSMOS 2374 (GLONASS),NSO,07268.63970366,1 26566U 00063C   07268.63970366 +.00000019 +00000-0 +10000-3 0 00532\,2 26566 064.5251 185.0151 0049590 216.8833 291.5332 02.13100477054075,64.5251,0.004959,2.13100477,185.0151,216.8833,291.5332
26566,COSMOS 2374 (GLONASS),NSO,07269.89896450,1 26566U 00063C   07269.89896450 +.00000029 +00000-0 +10000-3 0 00555\,2 26566 064.5252 184.9730 0049570 216.8530 177.6190 02.13100484054107,64.5252,0.004957,2.13100484,184.973,216.853,177.619
26566,COSMOS 2374 (GLONASS),NSO,07270.07006311,1 26566U 00063C   07270.07006311  .00000030  00000-0  10000-3 0   525\,2 26566 064.5251 184.9673 0049570 216.8477 308.8843 02.13100483 54104,64.5251,0.004957,2.13100483,184.9673,216.8477,308.8843
26566,COSMOS 2374 (GLONASS),NSO,07270.92096764,1 26566U 00063C   07270.92096764 +.00000034 +00000-0 +10000-3 0 00546\,2 26566 064.5252 184.9387 0049545 216.8116 241.7009 02.13100487054124,64.5252,0.0049545,2.13100487,184.9387,216.8116,241.7009
26566,COSMOS 2374 (GLONASS),NSO,07271.42065182,1 26566U 00063C   07271.42065182  .00000034  00000-0  10000-3 0   531\,2 26566 064.5252 184.9220 0049522 216.7774 265.0731 02.13100495 54135,64.5252,0.0049522,2.13100495,184.922,216.7774,265.0731
26566,COSMOS 2374 (GLONASS),NSO,07272.83842359,1 26566U 00063C   07272.83842359  .00000028  00000-0  10000-3 0   540\,2 26566 064.5250 184.8748 0049543 216.7671 272.7420 02.13100493 54167,64.525,0.0049543,2.13100493,184.8748,216.7671,272.742
26566,COSMOS 2374 (GLONASS),NSO,07274.23587046,1 26566U 00063C   07274.23587046 +.00000012 +00000-0 +10000-3 0 00582\,2 26566 064.5249 184.8279 0049505 216.7334 264.8408 02.13100486054191,64.5249,0.0049505,2.13100486,184.8279,216.7334,264.8408
26566,COSMOS 2374 (GLONASS),NSO,07274.26525316,1 26566U 00063C   07274.26525316  .00000012  00000-0  10000-3 0   554\,2 26566 064.5249 184.8270 0049508 216.7346 287.3808 02.13100484 54190,64.5249,0.0049508,2.13100484,184.827,216.7346,287.3808
26566,COSMOS 2374 (GLONASS),NSO,07274.70949563,1 26566U 00063C   07274.70949563 +.00000005 +00000-0 +10000-3 0 00560\,2 26566 064.5249 184.8121 0049513 216.7303 268.1903 02.13100482054207,64.5249,0.0049513,2.13100482,184.8121,216.7303,268.1903
26566,COSMOS 2374 (GLONASS),NSO,07275.21080174,1 26566U 00063C   07275.21080174 -.00000003 +00000-0 +10000-3 0 00571\,2 26566 064.5248 184.7955 0049535 216.7299 292.7734 02.13100484054216,64.5248,0.0049535,2.13100484,184.7955,216.7299,292.7734
26566,COSMOS 2374 (GLONASS),NSO,07276.07387571,1 26566U 00063C   07276.07387571 -.00000016  00000-0  10000-3 0   560\,2 26566 064.5248 184.7666 0049523 216.7194 234.9001 02.13100483 54232,64.5248,0.0049523,2.13100483,184.7666,216.7194,234.9001
26566,COSMOS 2374 (GLONASS),NSO,07276.92769065,1 26566U 00063C   07276.92769065 -.00000027 +00000-0 +10000-3 0 00580\,2 26566 064.5247 184.7381 0049505 216.7145 169.9178 02.13100478054259,64.5247,0.0049505,2.13100478,184.7381,216.7145,169.9178
26566,COSMOS 2374 (GLONASS),NSO,07277.09337637,1 26566U 00063C   07277.09337637 -.00000029  00000-0  10000-3 0   576\,2 26566 064.5247 184.7326 0049521 216.7074 297.0320 02.13100470 54251,64.5247,0.0049521,2.1310047,184.7326,216.7074,297.032
26566,COSMOS 2374 (GLONASS),NSO,07277.87645609,1 26566U 00063C   07277.87645609 -.00000035 +00000-0 +10000-3 0 00581\,2 26566 064.5247 184.7064 0049511 216.6968 177.7903 02.13100466054278,64.5247,0.0049511,2.13100466,184.7064,216.6968,177.7903
26566,COSMOS 2374 (GLONASS),NSO,07278.81913082,1 26566U 00063C   07278.81913082 -.00000036  00000-0  10000-3 0   580\,2 26566 064.5248 184.6747 0049483 216.6716 180.9979 02.13100461 54291,64.5248,0.0049483,2.13100461,184.6747,216.6716,180.9979
26566,COSMOS 2374 (GLONASS),NSO,07279.84258574,1 26566U 00063C   07279.84258574 -.00000031  00000-0  10000-3 0   598\,2 26566 064.5247 184.6407 0049468 216.6414 246.1807 02.13100432 54317,64.5247,0.0049468,2.13100432,184.6407,216.6414,246.1807
26566,COSMOS 2374 (GLONASS),NSO,07280.68774753,1 26566U 00063C   07280.68774753 -.00000022 +00000-0 +10000-3 0 00617\,2 26566 064.5245 184.6128 0049429 216.6115 174.5843 02.13100416054338,64.5245,0.0049429,2.13100416,184.6128,216.6115,174.5843
26566,COSMOS 2374 (GLONASS),NSO,07281.27303488,1 26566U 00063C   07281.27303488 -.00000014  00000-0  10000-3 0   606\,2 26566 064.5245 184.5932 0049433 216.6185 263.5862 02.13100410 54347,64.5245,0.0049433,2.1310041,184.5932,216.6185,263.5862
